[{"OBJECT_NAME":"GAOFEN-5 01","OBJECT_ID":"2018-043A","EPOCH":"2026-03-04T12:28:51.451680","MEAN_MOTION":14.60517092,"ECCENTRICITY":0.0002814,"INCLINATION":98.4457,"RA_OF_ASC_NODE":32.9801,"ARG_OF_PERICENTER":61.9392,"MEAN_ANOMALY":298.2092,"EPHEMERIS_TYPE":0,"CLASSIFICATION_TYPE":"U","NORAD_CAT_ID":43461,"ELEMENT_SET_NO":999,"REV_AT_EPOCH":41641,"BSTAR":0.00015779,"MEAN_MOTION_DOT":7.17e-6,"MEAN_MOTION_DDOT":0},{"OBJECT_NAME":"GAOFEN-6","OBJECT_ID":"2018-048A","EPOCH":"2026-03-04T20:22:55.843680","MEAN_MOTION":14.76584425,"ECCENTRICITY":0.0012835,"INCLINATION":97.7885,"RA_OF_ASC_NODE":130.3007,"ARG_OF_PERICENTER":149.3143,"MEAN_ANOMALY":210.8821,"EPHEMERIS_TYPE":0,"CLASSIFICATION_TYPE":"U","NORAD_CAT_ID":43484,"ELEMENT_SET_NO":999,"REV_AT_EPOCH":41799,"BSTAR":8.9837e-5,"MEAN_MOTION_DOT":5.78e-6,"MEAN_MOTION_DDOT":0},{"OBJECT_NAME":"GAOFEN-11 01","OBJECT_ID":"2018-063A","EPOCH":"2026-03-04T20:09:14.928768","MEAN_MOTION":15.52059579,"ECCENTRICITY":0.0004177,"INCLINATION":97.143,"RA_OF_ASC_NODE":131.1873,"ARG_OF_PERICENTER":20.8971,"MEAN_ANOMALY":339.2452,"EPHEMERIS_TYPE":0,"CLASSIFICATION_TYPE":"U","NORAD_CAT_ID":43585,"ELEMENT_SET_NO":999,"REV_AT_EPOCH":42414,"BSTAR":0.0001241,"MEAN_MOTION_DOT":7.388e-5,"MEAN_MOTION_DDOT":0},{"OBJECT_NAME":"ICESAT-2","OBJECT_ID":"2018-070A","EPOCH":"2026-03-04T20:19:46.124832","MEAN_MOTION":15.28287843,"ECCENTRICITY":0.0003227,"INCLINATION":91.9987,"RA_OF_ASC_NODE":262.8659,"ARG_OF_PERICENTER":131.3197,"MEAN_ANOMALY":228.833,"EPHEMERIS_TYPE":0,"CLASSIFICATION_TYPE":"U","NORAD_CAT_ID":43613,"ELEMENT_SET_NO":999,"REV_AT_EPOCH":41652,"BSTAR":0.00015509,"MEAN_MOTION_DOT":4.274e-5,"MEAN_MOTION_DDOT":0},{"OBJECT_NAME":"HYSIS","OBJECT_ID":"2018-096A","EPOCH":"2026-03-04T20:44:07.194624","MEAN_MOTION":14.78641566,"ECCENTRICITY":0.0001701,"INCLINATION":97.9954,"RA_OF_ASC_NODE":131.3793,"ARG_OF_PERICENTER":102.4752,"MEAN_ANOMALY":257.6649,"EPHEMERIS_TYPE":0,"CLASSIFICATION_TYPE":"U","NORAD_CAT_ID":43719,"ELEMENT_SET_NO":999,"REV_AT_EPOCH":39200,"BSTAR":0.00017705,"MEAN_MOTION_DOT":1.245e-5,"MEAN_MOTION_DDOT":0},{"OBJECT_NAME":"KAZSTSAT","OBJECT_ID":"2018-099AB","EPOCH":"2026-03-04T19:33:11.326752","MEAN_MOTION":14.99608114,"ECCENTRICITY":0.0007128,"INCLINATION":97.4409,"RA_OF_ASC_NODE":100.4212,"ARG_OF_PERICENTER":26.57,"MEAN_ANOMALY":333.5888,"EPHEMERIS_TYPE":0,"CLASSIFICATION_TYPE":"U","NORAD_CAT_ID":43783,"ELEMENT_SET_NO":999,"REV_AT_EPOCH":39566,"BSTAR":0.00011863,"MEAN_MOTION_DOT":1.405e-5,"MEAN_MOTION_DDOT":0},{"OBJECT_NAME":"SAUDISAT 5A","OBJECT_ID":"2018-102A","EPOCH":"2026-03-04T20:59:10.397760","MEAN_MOTION":15.2685666,"ECCENTRICITY":0.0011082,"INCLINATION":97.3197,"RA_OF_ASC_NODE":127.4854,"ARG_OF_PERICENTER":137.6828,"MEAN_ANOMALY":222.5268,"EPHEMERIS_TYPE":0,"CLASSIFICATION_TYPE":"U","NORAD_CAT_ID":43831,"ELEMENT_SET_NO":999,"REV_AT_EPOCH":39975,"BSTAR":0.00031566,"MEAN_MOTION_DOT":8.272e-5,"MEAN_MOTION_DDOT":0},{"OBJECT_NAME":"SAUDISAT 5B","OBJECT_ID":"2018-102C","EPOCH":"2026-03-04T20:19:56.860032","MEAN_MOTION":15.27168744,"ECCENTRICITY":0.0011785,"INCLINATION":97.3295,"RA_OF_ASC_NODE":130.3423,"ARG_OF_PERICENTER":140.3228,"MEAN_ANOMALY":219.8876,"EPHEMERIS_TYPE":0,"CLASSIFICATION_TYPE":"U","NORAD_CAT_ID":43833,"ELEMENT_SET_NO":999,"REV_AT_EPOCH":39986,"BSTAR":0.00031273,"MEAN_MOTION_DOT":8.274e-5,"MEAN_MOTION_DDOT":0},{"OBJECT_NAME":"GAOFEN-10R","OBJECT_ID":"2019-066A","EPOCH":"2026-03-04T20:11:04.510752","MEAN_MOTION":14.83133259,"ECCENTRICITY":0.0007999,"INCLINATION":98.0393,"RA_OF_ASC_NODE":16.7391,"ARG_OF_PERICENTER":119.4355,"MEAN_ANOMALY":240.7657,"EPHEMERIS_TYPE":0,"CLASSIFICATION_TYPE":"U","NORAD_CAT_ID":44622,"ELEMENT_SET_NO":999,"REV_AT_EPOCH":34691,"BSTAR":0.00028996,"MEAN_MOTION_DOT":2.31e-5,"MEAN_MOTION_DDOT":0},{"OBJECT_NAME":"CARTOSAT-3","OBJECT_ID":"2019-081A","EPOCH":"2026-03-04T19:53:30.059232","MEAN_MOTION":15.19342296,"ECCENTRICITY":0.0013588,"INCLINATION":97.4434,"RA_OF_ASC_NODE":127.308,"ARG_OF_PERICENTER":154.4401,"MEAN_ANOMALY":205.7508,"EPHEMERIS_TYPE":0,"CLASSIFICATION_TYPE":"U","NORAD_CAT_ID":44804,"ELEMENT_SET_NO":999,"REV_AT_EPOCH":34762,"BSTAR":0.00026911,"MEAN_MOTION_DOT":5.632e-5,"MEAN_MOTION_DDOT":0},{"OBJECT_NAME":"GAOFEN-12 01","OBJECT_ID":"2019-082A","EPOCH":"2026-03-04T20:32:33.896832","MEAN_MOTION":14.80358569,"ECCENTRICITY":0.0001994,"INCLINATION":97.8141,"RA_OF_ASC_NODE":72.9813,"ARG_OF_PERICENTER":62.5718,"MEAN_ANOMALY":297.5697,"EPHEMERIS_TYPE":0,"CLASSIFICATION_TYPE":"U","NORAD_CAT_ID":44819,"ELEMENT_SET_NO":999,"REV_AT_EPOCH":33865,"BSTAR":0.00010342,"MEAN_MOTION_DOT":7.38e-6,"MEAN_MOTION_DDOT":0},{"OBJECT_NAME":"CSG-1","OBJECT_ID":"2019-092A","EPOCH":"2026-03-04T19:33:41.599584","MEAN_MOTION":14.82165794,"ECCENTRICITY":0.0001314,"INCLINATION":97.8862,"RA_OF_ASC_NODE":248.9235,"ARG_OF_PERICENTER":86.8645,"MEAN_ANOMALY":273.2719,"EPHEMERIS_TYPE":0,"CLASSIFICATION_TYPE":"U","NORAD_CAT_ID":44873,"ELEMENT_SET_NO":999,"REV_AT_EPOCH":33601,"BSTAR":0.00011792,"MEAN_MOTION_DOT":8.87e-6,"MEAN_MOTION_DDOT":0},{"OBJECT_NAME":"NEMO-HD","OBJECT_ID":"2020-061F","EPOCH":"2026-03-04T19:39:35.403264","MEAN_MOTION":15.42370827,"ECCENTRICITY":0.0002529,"INCLINATION":97.2053,"RA_OF_ASC_NODE":126.9231,"ARG_OF_PERICENTER":84.2833,"MEAN_ANOMALY":275.8703,"EPHEMERIS_TYPE":0,"CLASSIFICATION_TYPE":"U","NORAD_CAT_ID":46277,"ELEMENT_SET_NO":999,"REV_AT_EPOCH":30588,"BSTAR":0.0003258,"MEAN_MOTION_DOT":0.00013985,"MEAN_MOTION_DDOT":0},{"OBJECT_NAME":"SENTINEL-6A","OBJECT_ID":"2020-086A","EPOCH":"2026-03-04T18:37:32.089440","MEAN_MOTION":12.80929572,"ECCENTRICITY":0.0007817,"INCLINATION":66.0446,"RA_OF_ASC_NODE":351.9166,"ARG_OF_PERICENTER":270.8289,"MEAN_ANOMALY":89.183,"EPHEMERIS_TYPE":0,"CLASSIFICATION_TYPE":"U","NORAD_CAT_ID":46984,"ELEMENT_SET_NO":999,"REV_AT_EPOCH":24695,"BSTAR":3.3119e-5,"MEAN_MOTION_DOT":-5.3e-7,"MEAN_MOTION_DDOT":0},{"OBJECT_NAME":"GAOFEN-12 02","OBJECT_ID":"2021-026A","EPOCH":"2026-03-04T20:32:31.019712","MEAN_MOTION":14.80196567,"ECCENTRICITY":0.0004211,"INCLINATION":97.9913,"RA_OF_ASC_NODE":62.4797,"ARG_OF_PERICENTER":196.3033,"MEAN_ANOMALY":163.8044,"EPHEMERIS_TYPE":0,"CLASSIFICATION_TYPE":"U","NORAD_CAT_ID":48079,"ELEMENT_SET_NO":999,"REV_AT_EPOCH":26632,"BSTAR":0.00010478,"MEAN_MOTION_DOT":7.44e-6,"MEAN_MOTION_DDOT":0},{"OBJECT_NAME":"PLEIADES NEO 3","OBJECT_ID":"2021-034A","EPOCH":"2026-03-04T20:21:03.254112","MEAN_MOTION":14.81674315,"ECCENTRICITY":0.0001324,"INCLINATION":97.8936,"RA_OF_ASC_NODE":140.1121,"ARG_OF_PERICENTER":91.4415,"MEAN_ANOMALY":268.6949,"EPHEMERIS_TYPE":0,"CLASSIFICATION_TYPE":"U","NORAD_CAT_ID":48268,"ELEMENT_SET_NO":999,"REV_AT_EPOCH":26220,"BSTAR":4.0493e-5,"MEAN_MOTION_DOT":2.67e-6,"MEAN_MOTION_DDOT":0},{"OBJECT_NAME":"PLEIADES NEO 4","OBJECT_ID":"2021-073E","EPOCH":"2026-03-04T19:32:24.961920","MEAN_MOTION":14.81671783,"ECCENTRICITY":0.0001293,"INCLINATION":97.8937,"RA_OF_ASC_NODE":140.075,"ARG_OF_PERICENTER":90.1126,"MEAN_ANOMALY":270.0235,"EPHEMERIS_TYPE":0,"CLASSIFICATION_TYPE":"U","NORAD_CAT_ID":49070,"ELEMENT_SET_NO":999,"REV_AT_EPOCH":24591,"BSTAR":3.8346e-5,"MEAN_MOTION_DOT":2.5e-6,"MEAN_MOTION_DDOT":0}]
