GAOFEN-5 01             
1 43461U 18043A   26063.52003995  .00000717  00000+0  15779-3 0  9990
2 43461  98.4457  32.9801 0002814  61.9392 298.2092 14.60517092416418
GAOFEN-6                
1 43484U 18048A   26063.84925745  .00000578  00000+0  89837-4 0  9993
2 43484  97.7885 130.3007 0012835 149.3143 210.8821 14.76584425417995
GAOFEN-11 01            
1 43585U 18063A   26063.83975612  .00007388  00000+0  12410-3 0  9997
2 43585  97.1430 131.1873 0004177  20.8971 339.2452 15.52059579424142
ICESAT-2                
1 43613U 18070A   26063.84706163  .00004274  00000+0  15509-3 0  9994
2 43613  91.9987 262.8659 0003227 131.3197 228.8330 15.28287843416521
HYSIS                   
1 43719U 18096A   26063.86397216  .00001245  00000+0  17705-3 0  9991
2 43719  97.9954 131.3793 0001701 102.4752 257.6649 14.78641566392007
KAZSTSAT                
1 43783U 18099AB  26063.81471443  .00001405  00000+0  11863-3 0  9992
2 43783  97.4409 100.4212 0007128  26.5700 333.5888 14.99608114395668
SAUDISAT 5A             
1 43831U 18102A   26063.87442590  .00008272  00000+0  31566-3 0  9999
2 43831  97.3197 127.4854 0011082 137.6828 222.5268 15.26856660399750
SAUDISAT 5B             
1 43833U 18102C   26063.84718588  .00008274  00000+0  31273-3 0  9998
2 43833  97.3295 130.3423 0011785 140.3228 219.8876 15.27168744399867
GAOFEN-10R              
1 44622U 19066A   26063.84102443  .00002310  00000+0  28996-3 0  9995
2 44622  98.0393  16.7391 0007999 119.4355 240.7657 14.83133259346914
CARTOSAT-3              
1 44804U 19081A   26063.82882013  .00005632  00000+0  26911-3 0  9995
2 44804  97.4434 127.3080 0013588 154.4401 205.7508 15.19342296347629
GAOFEN-12 01            
1 44819U 19082A   26063.85594788  .00000738  00000+0  10342-3 0  9997
2 44819  97.8141  72.9813 0001994  62.5718 297.5697 14.80358569338659
CSG-1                   
1 44873U 19092A   26063.81506481  .00000887  00000+0  11792-3 0  9992
2 44873  97.8862 248.9235 0001314  86.8645 273.2719 14.82165794336018
NEMO-HD                 
1 46277U 20061F   26063.81915976  .00013985  00000+0  32580-3 0  9994
2 46277  97.2053 126.9231 0002529  84.2833 275.8703 15.42370827305889
SENTINEL-6A             
1 46984U 20086A   26063.77606585 -.00000053  00000+0  33119-4 0  9997
2 46984  66.0446 351.9166 0007817 270.8289  89.1830 12.80929572246959
GAOFEN-12 02            
1 48079U 21026A   26063.85591458  .00000744  00000+0  10478-3 0  9998
2 48079  97.9913  62.4797 0004211 196.3033 163.8044 14.80196567266328
PLEIADES NEO 3          
1 48268U 21034A   26063.84795433  .00000267  00000+0  40493-4 0  9996
2 48268  97.8936 140.1121 0001324  91.4415 268.6949 14.81674315262202
PLEIADES NEO 4          
1 49070U 21073E   26063.81417780  .00000250  00000+0  38346-4 0  9990
2 49070  97.8937 140.0750 0001293  90.1126 270.0235 14.81671783245912
